IRIDIUM 26              
1 24903U 97043A   26003.14115249  .00000762  00000+0  24879-3 0  9996
2 24903  86.3944  26.5643 0002338  95.1393 265.0071 14.37348552485466
IRIDIUM 22              
1 24907U 97043E   26003.30713740  .00000622  00000+0  20697-3 0  9997
2 24907  86.3945  30.2064 0002311  90.0294 270.1168 14.36139719485494
DUMMY MASS 1            
1 24925U 97048A   26003.13518503  .00000746  00000+0  79749-4 0  9993
2 24925  86.3325  42.8024 0007807 141.1919 218.9869 14.87204560534843
DUMMY MASS 2            
1 24926U 97048B   26003.13074588  .00000735  00000+0  79036-4 0  9991
2 24926  86.3325  44.4492 0008131 152.8390 207.3262 14.86954993534619
IRIDIUM 29              
1 24944U 97051A   26003.25712417  .00000671  00000+0  22132-3 0  9991
2 24944  86.3932  59.9066 0002143  88.7103 271.4340 14.36683180481990
IRIDIUM 33              
1 24946U 97051C   26003.25256980  .00000597  00000+0  20259-3 0  9996
2 24946  86.3848  59.1892 0009334 134.6336 225.5623 14.35055234481430
IRIDIUM 28              
1 24948U 97051E   26003.24388112  .00000719  00000+0  23334-3 0  9993
2 24948  86.3937  57.3135 0002585 103.1564 256.9923 14.37583680482587
IRIDIUM 36              
1 24967U 97056C   26003.31524548  .00000831  00000+0  26960-3 0  9995
2 24967  86.3958  88.9130 0002386  96.0162 264.1308 14.37808282480976
